GLOBALSTAR M035 [-]     
1 25851U 99037A   24073.50950347 -.00000106  00000+0 -15873-2 0  9992
2 25851  51.9999   2.3079 0013521 317.3556 213.9273 11.04528656 45350
GLOBALSTAR M032 [-]     
1 25852U 99037B   24073.77832543 -.00000069  00000+0 -85950-4 0  9992
2 25852  51.9923 218.6750 0010605 111.6895 248.5035 11.19049905 83248
GLOBALSTAR M051 [-]     
1 25853U 99037C   24073.73635939 -.00000079  00000+0 -16976-3 0  9991
2 25853  51.9791  71.6593 0001665 109.1496 250.9495 11.42194573 79777
GLOBALSTAR M030 [-]     
1 25854U 99037D   24073.89019760 -.00000073  00000+0  33462-4 0  9990
2 25854  51.9854 266.6677 0002951 313.0409  47.0160 11.55085505 96856
GLOBALSTAR M048 [-]     
1 25872U 99041A   24073.74514147 -.00000042  00000+0  74826-3 0  9992
2 25872  51.9410 348.8714 0013723 106.0586 267.0344 11.33843791 72750
GLOBALSTAR M026 [-]     
1 25873U 99041B   24073.86128469 -.00000115  00000+0 -18872-2 0  9994
2 25873  51.9992 124.3328 0001490 190.0662 340.4451 11.06834946 97518
GLOBALSTAR M043 [-]     
1 25874U 99041C   24073.43020139 -.00000055  00000+0  39746-3 0  9999
2 25874  51.9390  78.8956 0012838 247.0337 262.6953 11.25675418 70983
GLOBALSTAR M028 [-]     
1 25875U 99041D   24073.86428303 -.00000020  00000+0  52030-3 0  9995
2 25875  51.9614 125.6296 0063892 151.6326 208.8036 12.50552123132580
